[
    {
        "payload": {
            "Name": "Sol Heaton",
            "Zip": 3695,
            "Item": "Sauce Labs Bolt T-Shirt"
        },
        "files": {}
    },
    {
        "payload": {
            "Name": "Gregg Arroyo",
            "Zip": 4418,
            "Item": "Sauce Labs Onesie"
        },
        "files": {}
    },
    {
        "payload": {
            "Name": "Zoya Roche",
            "Zip": 3013,
            "Item": "Sauce Labs Bolt T-Shirt"
        },
        "files": {}
    },
    {
        "payload": {
            "Name": "Gregg Arroyo",
            "Zip": 4418,
            "Item": "Sauce Labs Bolt T-Shirt"
        },
        "files": {}
    },
    {
        "payload": {
            "Name": "Camden Martin",
            "Zip": 1196,
            "Item": "Sauce Labs Bolt T-Shirt"
        },
        "files": {}
    },
    {
        "payload": {
            "Name": "Zoya Roche",
            "Zip": 3013,
            "Item": "Sauce Labs Fleece Jacket"
        },
        "files": {}
    },
    {
        "payload": {
            "Name": "Zoya Roche",
            "Zip": 3013,
            "Item": "Sauce Labs Onesie"
        },
        "files": {}
    },
    {
        "payload": {
            "Name": "Sol Heaton",
            "Zip": 3695,
            "Item": "Sauce Labs Fleece Jacket"
        },
        "files": {}
    },
    {
        "payload": {
            "Name": "Sol Heaton",
            "Zip": 3695,
            "Item": "Sauce Labs Onesee"
        },
        "files": {}
    }
]